LEMUR-2-GREENBERG       
1 42837U 17042N   26068.46200528  .00019778  00000+0  72539-3 0  9997
2 42837  97.3781 249.8007 0009157   4.0119 356.1192 15.27971352473146
STARLINK-34040          
1 63839U 25093D   26068.43189080  .00028192  00000+0  10300-2 0  9990
2 63839  43.0021  79.2819 0001168 264.7212  95.3506 15.27581833 47931
